KUIPER-00044            
1 64505U 25134F   26193.78336400 -.00000194  00000+0  35958-5 0  9996
2 64505  51.9006  52.3891 0000917 118.5327 241.5728 14.79934451 58420
KUIPER-00046            
1 64506U 25134G   26193.75230097  .00001851  00000+0  27168-3 0  9991
2 64506  51.8989  50.0044 0000704 112.1374 247.9663 14.79936064 58454
KUIPER-00047            
1 64507U 25134H   26193.74819382  .00000402  00000+0  81786-4 0  9999
2 64507  51.8988  22.5447 0000730 108.2282 251.8760 14.79931859 58839
KUIPER-00048            
1 64508U 25134J   26193.71444475  .00001818  00000+0  26746-3 0  9990
2 64508  51.9006  22.7097 0000715 120.2988 239.8045 14.79930288 58832
KUIPER-00049            
1 64509U 25134K   26193.80223928  .00000526  00000+0  97992-4 0  9996
2 64509  51.9021  34.7845 0000665 101.7819 258.3218 14.79932223 58676
KUIPER-00050            
1 64510U 25134L   26193.75358779  .00000156  00000+0  49495-4 0  9999
2 64510  51.9004  17.5231 0000617 112.6430 247.4597 14.79932753 58918
KUIPER-00051            
1 64511U 25134M   26193.77826323  .00001857  00000+0  27249-3 0  9998
2 64511  51.9004  33.5871 0000819 108.1613 251.9438 14.79936213 58687
KUIPER-00053            
1 64513U 25134P   26192.99223883  .00001547  00000+0  22282-3 0  9993
2 64513  51.9008  32.3438 0000328 315.5623  44.5314 14.81684622 58630
KUIPER-00054            
1 64514U 25134Q   26193.77929926  .00001762  00000+0  26011-3 0  9995
2 64514  51.9001  24.9012 0000845 124.2041 235.9002 14.79924717 58800
KUIPER-00055            
1 64515U 25134R   26193.79674664  .00000188  00000+0  53618-4 0  9999
2 64515  51.9038 337.4601 0000571 102.9427 257.1599 14.79933343 59470
KUIPER-00056            
1 64516U 25134S   26193.74011838  .00000103  00000+0  42495-4 0  9991
2 64516  51.9046  30.1687 0000791 109.0616 251.0432 14.79932440 58737
KUIPER-00057            
1 64517U 25134T   26192.98916906  .00002245  00000+0  32326-3 0  9997
2 64517  51.9001  40.9207 0000795 114.9042 245.2003 14.79943651 58519
KUIPER-00058            
1 64518U 25134U   26193.70364793  .00001862  00000+0  27311-3 0  9992
2 64518  51.9010  32.7320 0000567 116.9475 243.1545 14.79935885 58691
KUIPER-00059            
1 64519U 25134V   26193.77656455  .00001644  00000+0  24466-3 0  9995
2 64519  51.8993  27.4463 0001574 149.4067 210.6987 14.79930350 58777
KUIPER-00060            
1 64520U 25134W   26193.74281416  .00000654  00000+0  11474-3 0  9990
2 64520  51.9058  27.6588 0000945 143.1839 216.9188 14.79932705 58757
KUIPER-00061            
1 64521U 25134X   26193.76849191  .00001778  00000+0  26233-3 0  9990
2 64521  51.9022  35.0014 0000839 102.1345 257.9711 14.79908696 58653
