{"fetched_at":"2026-07-13T07:47:52.862Z","source":"https://celestrak.org/NORAD/elements/gp.php?GROUP=kuiper&FORMAT=JSON","constellation":"kuiper","records":[{"OBJECT_NAME":"KUIPER-00044","OBJECT_ID":"2025-134F","EPOCH":"2026-07-12T18:48:02.649600","CLASSIFICATION_TYPE":"U","MEAN_MOTION":14.79934451,"ECCENTRICITY":0.0000917,"INCLINATION":51.9006,"RA_OF_ASC_NODE":52.3891,"ARG_OF_PERICENTER":118.5327,"MEAN_ANOMALY":241.5728,"EPHEMERIS_TYPE":0,"NORAD_CAT_ID":64505,"ELEMENT_SET_NO":999,"REV_AT_EPOCH":5842,"BSTAR":0.0000035958,"MEAN_MOTION_DOT":-0.00000194,"MEAN_MOTION_DDOT":0},{"OBJECT_NAME":"KUIPER-00046","OBJECT_ID":"2025-134G","EPOCH":"2026-07-12T18:03:18.803808","CLASSIFICATION_TYPE":"U","MEAN_MOTION":14.79936064,"ECCENTRICITY":0.0000704,"INCLINATION":51.8989,"RA_OF_ASC_NODE":50.0044,"ARG_OF_PERICENTER":112.1374,"MEAN_ANOMALY":247.9663,"EPHEMERIS_TYPE":0,"NORAD_CAT_ID":64506,"ELEMENT_SET_NO":999,"REV_AT_EPOCH":5845,"BSTAR":0.00027168,"MEAN_MOTION_DOT":0.00001851,"MEAN_MOTION_DDOT":0},{"OBJECT_NAME":"KUIPER-00047","OBJECT_ID":"2025-134H","EPOCH":"2026-07-12T17:57:23.946048","CLASSIFICATION_TYPE":"U","MEAN_MOTION":14.79931859,"ECCENTRICITY":0.000073,"INCLINATION":51.8988,"RA_OF_ASC_NODE":22.5447,"ARG_OF_PERICENTER":108.2282,"MEAN_ANOMALY":251.876,"EPHEMERIS_TYPE":0,"NORAD_CAT_ID":64507,"ELEMENT_SET_NO":999,"REV_AT_EPOCH":5883,"BSTAR":0.000081786,"MEAN_MOTION_DOT":0.00000402,"MEAN_MOTION_DDOT":0},{"OBJECT_NAME":"KUIPER-00048","OBJECT_ID":"2025-134J","EPOCH":"2026-07-12T17:08:48.026400","CLASSIFICATION_TYPE":"U","MEAN_MOTION":14.79930288,"ECCENTRICITY":0.0000715,"INCLINATION":51.9006,"RA_OF_ASC_NODE":22.7097,"ARG_OF_PERICENTER":120.2988,"MEAN_ANOMALY":239.8045,"EPHEMERIS_TYPE":0,"NORAD_CAT_ID":64508,"ELEMENT_SET_NO":999,"REV_AT_EPOCH":5883,"BSTAR":0.00026746,"MEAN_MOTION_DOT":0.00001818,"MEAN_MOTION_DDOT":0},{"OBJECT_NAME":"KUIPER-00049","OBJECT_ID":"2025-134K","EPOCH":"2026-07-12T19:15:13.473792","CLASSIFICATION_TYPE":"U","MEAN_MOTION":14.79932223,"ECCENTRICITY":0.0000665,"INCLINATION":51.9021,"RA_OF_ASC_NODE":34.7845,"ARG_OF_PERICENTER":101.7819,"MEAN_ANOMALY":258.3218,"EPHEMERIS_TYPE":0,"NORAD_CAT_ID":64509,"ELEMENT_SET_NO":999,"REV_AT_EPOCH":5867,"BSTAR":0.000097992,"MEAN_MOTION_DOT":0.00000526,"MEAN_MOTION_DDOT":0},{"OBJECT_NAME":"KUIPER-00050","OBJECT_ID":"2025-134L","EPOCH":"2026-07-12T18:05:09.985056","CLASSIFICATION_TYPE":"U","MEAN_MOTION":14.79932753,"ECCENTRICITY":0.0000617,"INCLINATION":51.9004,"RA_OF_ASC_NODE":17.5231,"ARG_OF_PERICENTER":112.643,"MEAN_ANOMALY":247.4597,"EPHEMERIS_TYPE":0,"NORAD_CAT_ID":64510,"ELEMENT_SET_NO":999,"REV_AT_EPOCH":5891,"BSTAR":0.000049495,"MEAN_MOTION_DOT":0.00000156,"MEAN_MOTION_DDOT":0},{"OBJECT_NAME":"KUIPER-00051","OBJECT_ID":"2025-134M","EPOCH":"2026-07-12T18:40:41.943072","CLASSIFICATION_TYPE":"U","MEAN_MOTION":14.79936213,"ECCENTRICITY":0.0000819,"INCLINATION":51.9004,"RA_OF_ASC_NODE":33.5871,"ARG_OF_PERICENTER":108.1613,"MEAN_ANOMALY":251.9438,"EPHEMERIS_TYPE":0,"NORAD_CAT_ID":64511,"ELEMENT_SET_NO":999,"REV_AT_EPOCH":5868,"BSTAR":0.00027249,"MEAN_MOTION_DOT":0.00001857,"MEAN_MOTION_DDOT":0},{"OBJECT_NAME":"KUIPER-00053","OBJECT_ID":"2025-134P","EPOCH":"2026-07-11T23:48:49.434912","CLASSIFICATION_TYPE":"U","MEAN_MOTION":14.81684622,"ECCENTRICITY":0.00003285,"INCLINATION":51.9008,"RA_OF_ASC_NODE":32.3438,"ARG_OF_PERICENTER":315.5623,"MEAN_ANOMALY":44.5314,"EPHEMERIS_TYPE":0,"NORAD_CAT_ID":64513,"ELEMENT_SET_NO":999,"REV_AT_EPOCH":5863,"BSTAR":0.00022281573,"MEAN_MOTION_DOT":0.00001547,"MEAN_MOTION_DDOT":0},{"OBJECT_NAME":"KUIPER-00054","OBJECT_ID":"2025-134Q","EPOCH":"2026-07-12T18:42:11.456064","CLASSIFICATION_TYPE":"U","MEAN_MOTION":14.79924717,"ECCENTRICITY":0.0000845,"INCLINATION":51.9001,"RA_OF_ASC_NODE":24.9012,"ARG_OF_PERICENTER":124.2041,"MEAN_ANOMALY":235.9002,"EPHEMERIS_TYPE":0,"NORAD_CAT_ID":64514,"ELEMENT_SET_NO":999,"REV_AT_EPOCH":5880,"BSTAR":0.00026011,"MEAN_MOTION_DOT":0.00001762,"MEAN_MOTION_DDOT":0},{"OBJECT_NAME":"KUIPER-00055","OBJECT_ID":"2025-134R","EPOCH":"2026-07-12T19:07:18.909696","CLASSIFICATION_TYPE":"U","MEAN_MOTION":14.79933343,"ECCENTRICITY":0.0000571,"INCLINATION":51.9038,"RA_OF_ASC_NODE":337.4601,"ARG_OF_PERICENTER":102.9427,"MEAN_ANOMALY":257.1599,"EPHEMERIS_TYPE":0,"NORAD_CAT_ID":64515,"ELEMENT_SET_NO":999,"REV_AT_EPOCH":5947,"BSTAR":0.000053618,"MEAN_MOTION_DOT":0.00000188,"MEAN_MOTION_DDOT":0},{"OBJECT_NAME":"KUIPER-00056","OBJECT_ID":"2025-134S","EPOCH":"2026-07-12T17:45:46.228032","CLASSIFICATION_TYPE":"U","MEAN_MOTION":14.7993244,"ECCENTRICITY":0.0000791,"INCLINATION":51.9046,"RA_OF_ASC_NODE":30.1687,"ARG_OF_PERICENTER":109.0616,"MEAN_ANOMALY":251.0432,"EPHEMERIS_TYPE":0,"NORAD_CAT_ID":64516,"ELEMENT_SET_NO":999,"REV_AT_EPOCH":5873,"BSTAR":0.000042495,"MEAN_MOTION_DOT":0.00000103,"MEAN_MOTION_DDOT":0},{"OBJECT_NAME":"KUIPER-00057","OBJECT_ID":"2025-134T","EPOCH":"2026-07-11T23:44:24.206784","CLASSIFICATION_TYPE":"U","MEAN_MOTION":14.79943651,"ECCENTRICITY":0.0000795,"INCLINATION":51.9001,"RA_OF_ASC_NODE":40.9207,"ARG_OF_PERICENTER":114.9042,"MEAN_ANOMALY":245.2003,"EPHEMERIS_TYPE":0,"NORAD_CAT_ID":64517,"ELEMENT_SET_NO":999,"REV_AT_EPOCH":5851,"BSTAR":0.00032326087,"MEAN_MOTION_DOT":0.00002245,"MEAN_MOTION_DDOT":0},{"OBJECT_NAME":"KUIPER-00058","OBJECT_ID":"2025-134U","EPOCH":"2026-07-12T16:53:15.181152","CLASSIFICATION_TYPE":"U","MEAN_MOTION":14.79935885,"ECCENTRICITY":0.0000567,"INCLINATION":51.901,"RA_OF_ASC_NODE":32.732,"ARG_OF_PERICENTER":116.9475,"MEAN_ANOMALY":243.1545,"EPHEMERIS_TYPE":0,"NORAD_CAT_ID":64518,"ELEMENT_SET_NO":999,"REV_AT_EPOCH":5869,"BSTAR":0.00027311,"MEAN_MOTION_DOT":0.00001862,"MEAN_MOTION_DDOT":0},{"OBJECT_NAME":"KUIPER-00059","OBJECT_ID":"2025-134V","EPOCH":"2026-07-12T18:38:15.177120","CLASSIFICATION_TYPE":"U","MEAN_MOTION":14.7993035,"ECCENTRICITY":0.0001574,"INCLINATION":51.8993,"RA_OF_ASC_NODE":27.4463,"ARG_OF_PERICENTER":149.4067,"MEAN_ANOMALY":210.6987,"EPHEMERIS_TYPE":0,"NORAD_CAT_ID":64519,"ELEMENT_SET_NO":999,"REV_AT_EPOCH":5877,"BSTAR":0.00024466,"MEAN_MOTION_DOT":0.00001644,"MEAN_MOTION_DDOT":0},{"OBJECT_NAME":"KUIPER-00060","OBJECT_ID":"2025-134W","EPOCH":"2026-07-12T17:49:39.143424","CLASSIFICATION_TYPE":"U","MEAN_MOTION":14.79932705,"ECCENTRICITY":0.0000945,"INCLINATION":51.9058,"RA_OF_ASC_NODE":27.6588,"ARG_OF_PERICENTER":143.1839,"MEAN_ANOMALY":216.9188,"EPHEMERIS_TYPE":0,"NORAD_CAT_ID":64520,"ELEMENT_SET_NO":999,"REV_AT_EPOCH":5875,"BSTAR":0.00011474,"MEAN_MOTION_DOT":0.00000654,"MEAN_MOTION_DDOT":0},{"OBJECT_NAME":"KUIPER-00061","OBJECT_ID":"2025-134X","EPOCH":"2026-07-12T18:26:37.701024","CLASSIFICATION_TYPE":"U","MEAN_MOTION":14.79908696,"ECCENTRICITY":0.0000839,"INCLINATION":51.9022,"RA_OF_ASC_NODE":35.0014,"ARG_OF_PERICENTER":102.1345,"MEAN_ANOMALY":257.9711,"EPHEMERIS_TYPE":0,"NORAD_CAT_ID":64521,"ELEMENT_SET_NO":999,"REV_AT_EPOCH":5865,"BSTAR":0.00026233,"MEAN_MOTION_DOT":0.00001778,"MEAN_MOTION_DDOT":0}]}
